{
    "links": {
        "self": "http://www.neowsapp.com/rest/v1/neo/3843864?api_key=iIulBulltgU6a56xZRHN4H3l9WmuAYTsLGpBGhQ2"
    },
    "id": "3843864",
    "neo_reference_id": "3843864",
    "name": "(2019 RZ3)",
    "designation": "2019 RZ3",
    "nasa_jpl_url": "http://ssd.jpl.nasa.gov/sbdb.cgi?sstr=3843864",
    "absolute_magnitude_h": 25.1,
    "estimated_diameter": {
        "kilometers": {
            "estimated_diameter_min": 0.0253837029,
            "estimated_diameter_max": 0.0567596853
        },
        "meters": {
            "estimated_diameter_min": 25.3837029364,
            "estimated_diameter_max": 56.7596852866
        },
        "miles": {
            "estimated_diameter_min": 0.0157726969,
            "estimated_diameter_max": 0.0352688224
        },
        "feet": {
            "estimated_diameter_min": 83.279867942,
            "estimated_diameter_max": 186.2194458756
        }
    },
    "is_potentially_hazardous_asteroid": false,
    "close_approach_data": [
        {
            "close_approach_date": "2019-08-28",
            "close_approach_date_full": "2019-Aug-28 09:26",
            "epoch_date_close_approach": 1566984360000,
            "relative_velocity": {
                "kilometers_per_second": "10.0289702575",
                "kilometers_per_hour": "36104.2929271534",
                "miles_per_hour": "22433.803569097"
            },
            "miss_distance": {
                "astronomical": "0.1054571934",
                "lunar": "41.0228482326",
                "kilometers": "15776171.508818058",
                "miles": "9802858.4109948804"
            },
            "orbiting_body": "Earth"
        }
    ],
    "orbital_data": {
        "orbit_id": "1",
        "orbit_determination_date": "2019-09-17 00:12:02",
        "first_observation_date": "2019-09-07",
        "last_observation_date": "2019-09-08",
        "data_arc_in_days": 1,
        "observations_used": 10,
        "orbit_uncertainty": "9",
        "minimum_orbit_intersection": ".104422",
        "jupiter_tisserand_invariant": "3.060",
        "epoch_osculation": "2458734.5",
        "eccentricity": ".5897999398499414",
        "semi_major_axis": "2.698560517375072",
        "inclination": "13.37865182961021",
        "ascending_node_longitude": "159.9534936951073",
        "orbital_period": "1619.185737562475",
        "perihelion_distance": "1.106949686545828",
        "perihelion_argument": "165.2599889571092",
        "aphelion_distance": "4.290171348204317",
        "perihelion_time": "2458715.956702711013",
        "mean_anomaly": "4.122804981030009",
        "mean_motion": ".2223339741998621",
        "equinox": "J2000",
        "orbit_class": {
            "orbit_class_type": "AMO",
            "orbit_class_description": "Near-Earth asteroid orbits similar to that of 1221 Amor",
            "orbit_class_range": "1.017 AU < q (perihelion) < 1.3 AU"
        }
    },
    "is_sentry_object": false
}